/Users/emiliakacprzak/Code/papers/semantification/benchmark_labels_new/mediumSample/medium5/dbo_areaLand-250-medium-5var.csv
[(u'areaTotal', 0.0014894258765428545), (u'areaLand', 0.003695987278228417), (u'areaWater', 0.8554405421841423), (u'postalCode', 0.9368329142218497), (u'populationMetro', 0.9963405104229849), (u'populationUrban', 0.996504333755946), (u'populationTotal', 0.9983508212330428), (u'PopulatedPlace/populationDensity', 0.9985115954177144), (u'populationDensity', 0.9985115954177144), (u'areaCode', 0.9992833193629506), (u'elevation', 0.9997639005308745), (u'utcOffset', 0.9999930148086058), (u'PopulatedPlace/areaTotal', 0.9999988596888116), (u'maximumElevation', 0.9999994266744924), (u'percentageOfAreaWater', 0.9999999830691296), (u'populationTotalRanking', 0.9999999905418558), (u'o/wgs84_pos#lat', 1.0), (u'minimumElevation', 1.0)]
NOT correct mapping: areaWater - elevation
/Users/emiliakacprzak/Code/papers/semantification/benchmark_labels_new/mediumSample/medium5/dbo_areaWater-173-medium-5var.csv
[(u'elevation', 0), (u'areaWater', 0), (u'percentageOfAreaWater', 0), (u'postalCode', 0.7736667730139642), (u'areaLand', 0.7788575217391305), (u'rotationPeriod', 0.7796935505842264), (u'areaTotal', 0.8189937010676157), (u'populationTotal', 0.8955260509976195), (u'averageSpeed', 0.97542183746413513), (u'PopulatedPlace/populationDensity', 0.9963594755610966), (u'populationDensity', 0.9963594767712961), (u'yearLeader', 0.99641244250714522), (u'radius', 0.99641244250714522), (u'tisserand', 0.99641244250714522), (u'uncertainty', 0.99641244250714522), (u'areaCode', 0.9967990252016324), (u'PopulatedPlace/areaTotal', 0.9984464913891956), (u'PopulatedPlace/area', 0.9994797162981324), (u'meanAnomaly', 0.99979627236415491), (u'absoluteMagnitude', 0.99979627236415491), (u'ascNode', 0.99979627236415491), (u'argPeri', 0.99979627236415491), (u'mass', 0.99992105235754125), (u'utcOffset', 0.9999400695193575), (u'temperature', 0.99994174193555263), (u'orbitalPeriod', 0.99997006565840341), (u'inclination', 0.99998802138289866), (u'eccentricity', 0.99998802138289866), (u'area', 0.9999950916631899), (u'periapsis', 0.99999999477103951), (u'apoapsis', 0.99999999477103951), (u'o/wgs84_pos#lat', 1.0)]
NOT correct mapping: populationDensity - PopulatedPlace/populationDensity
/Users/emiliakacprzak/Code/papers/semantification/benchmark_labels_new/mediumSample/medium5/dbo_populationDensity-401-medium-5var.csv
[(u'PopulatedPlace/populationDensity', 0.0023501762632197414), (u'populationDensity', 0.0023501762632197414), (u'populationTotal', 0.03341103341103341), (u'elevation', 0.8201970443349754), (u'areaTotal', 0.9953), (u'PopulatedPlace/areaTotal', 0.9984931506849316), (u'years', 0.99999520366028383), (u'imageSize', 0.9999967199092693), (u'floorArea', 0.99999768707300718), (u'weight', 0.9999994270229513), (u'heightFt', 0.9999994270229513), (u'heightIn', 0.9999994270229513), (u'o/wgs84_pos#lat', 0.99999999427823449), (u'o/wgs84_pos#long', 0.99999999442484799), (u'height', 0.99999999863774824)]
NOT correct mapping: areaTotal - numberOfIslands
/Users/emiliakacprzak/Code/papers/semantification/benchmark_labels_new/mediumSample/medium5/dbo_areaTotal-284-medium-5var.csv
[(u'numberOfIslands', 0), (u'PopulatedPlace/areaTotal', 0), (u'populationTotal', 0), (u'areaTotal', 0), (u'length', 0.9979709255517917), (u'width', 0.9998262414920505), (u'elevation', 0.9999400014702342), (u'maximumElevation', 0.9999817791892832), (u'long', 0.99999999307434118), (u'lat', 0.9999999989190449), (u'PopulatedPlace/populationDensity', 0.9999999992305945), (u'populationDensity', 0.9999999992305945), (u'o/wgs84_pos#lat', 1.0), (u'o/wgs84_pos#long', 1.0)]
top 1 correctly labelled: 140
top 3 correctly labelled: 160
top X correctly labelled: 166
total: 166
Size: large Deviation: 5
all datasets: 183
NOT correct mapping: populationDensity - id
/Users/emiliakacprzak/Code/papers/semantification/benchmark_labels_new/largeSample/large5/dbo_populationDensity-402-large-5var.csv
[(u'id', 0.00075199751287069461), (u'PopulatedPlace/populationDensity', 0.02439024390243908), (u'populationDensity', 0.02439024390243908), (u'totalPopulation', 0.31362007363419575), (u'dateEvent', 0.31768953192217531), (u'meps', 0.31768953192217531), (u'imageWidth', 0.33524845761885491), (u'logo', 0.33524845761885491), (u'graySubject', 0.33524845761885491), (u'passedvote', 0.33524845761885491), (u'2p', 0.33524845761885491), (u'grayPage', 0.34912716829599133), (u'colwidth', 0.34912716829599133), (u'runtime', 0.36036086105938492), (u'o/wgs84_pos#lat', 0.41217068781559707), (u'imageSize', 0.4522810304080479), (u'pop', 0.69691935942101946), (u'areaLand', 0.7021948051948051), (u'o/wgs84_pos#long', 0.70455556187387269), (u'date', 0.91102925766877396), (u'populationTotal', 0.9258645501722559), (u'PopulatedPlace/areaTotal', 0.9983225105349355), (u'areaTotal', 0.9999999983225112)]
NOT correct mapping: displacement - gspy
/Users/emiliakacprzak/Code/papers/semantification/benchmark_labels_new/largeSample/large5/dbo_displacement-378-large-5var.csv
[(u'gspy', 0.99997123702502488), (u'cvg', 0.9999927377908453), (u'award', 0.99999860093661586), (u'date', 0.99999961520922087), (u'np', 0.99999973434061395), (u'fileSize', 0.99999989945831891), (u'edge', 0.99999989945831891), (u'ign', 0.99999995501178673), (u'id', 0.99999996454460671), (u'fam', 0.99999999085944091), (u'eurog', 0.99999999329298472), (u'egm', 0.99999999329298472), (u'gi', 0.99999999799843198), (u'gspot', 0.99999999978260734), (u'pistonStroke', 1.0), (u'weight', 1.0), (u'productionStartYear', 1.0), (u'displacement', 1.0), (u'Engine/powerOutput', 1.0), (u'Engine/displacement', 1.0), (u'productionEndYear', 1.0), (u'powerOutput', 1.0), (u'Engine/cylinderBore', 1.0), (u'cylinderBore', 1.0), (u'torqueOutput', 1.0), (u'Engine/torqueOutput', 1.0), (u'Engine/weight', 1.0), (u'Engine/pistonStroke', 1.0)]
NOT correct mapping: populationDensity - PopulatedPlace/populationDensity
/Users/emiliakacprzak/Code/papers/semantification/benchmark_labels_new/largeSample/large5/dbo_populationDensity-405-large-5var.csv
[(u'PopulatedPlace/populationDensity', 0.0007807019016948595), (u'populationDensity', 0.0007813559322034355), (u'caption', 0.025993197546644198), (u'2p', 0.16875355245869283), (u'1p', 0.2818909955264034), (u'PopulatedPlace/areaUrban', 0.42376543209876544), (u'elevation', 0.48707663904701204), (u'1pp', 0.52062865587173324), (u'2pp', 0.68093023587032309), (u'PopulatedPlace/areaTotal', 0.7471880021424746), (u'percentageOfAreaWater', 0.9152542372881356), (u'areaTotal', 0.9519386254237289), (u'years', 0.97955383288115483), (u'populationTotal', 0.9945504087193461), (u'birthDate', 0.99610746562265995), (u'ministeryears', 0.99889668975362012), (u'areaCode', 0.9989287627209427), (u'populationMetro', 0.9992103153874298), (u'children', 0.99961034878740274), (u'weight', 0.9997358221371162), (u'1y', 0.99974235378524945), (u'height', 0.99988374574800587), (u'2y', 0.99989663616167035), (u'areaUrban', 0.999999423765432)]
NOT correct mapping: displacement - cylinderBore
/Users/emiliakacprzak/Code/papers/semantification/benchmark_labels_new/largeSample/large5/dbo_displacement-377-large-5var.csv
[(u'cylinderBore', 0.99999999491992353), (u'pistonStroke', 0.99999999991496769), (u'torqueOutput', 1.0), (u'acceleration', 1.0), (u'startYearOfInsertion', 1.0), (u'displacement', 1.0), (u'endYearOfInsertion', 1.0), (u'powerOutput', 1.0)]
NOT correct mapping: displacement - powerOutput
/Users/emiliakacprzak/Code/papers/semantification/benchmark_labels_new/largeSample/large5/dbo_displacement-376-large-5var.csv
[(u'powerOutput', 0.99947764157343821), (u'displacement', 0.99999970487620493)]
NOT correct mapping: height - totalLaunches
/Users/emiliakacprzak/Code/papers/semantification/benchmark_labels_new/largeSample/large5/dbo_height-235-large-5var.csv
[(u'totalLaunches', 0.0), (u'height', 0.020749999999999984), (u'successfulLaunches', 0.39285714285714285), (u'failedLaunches', 0.6), (u'rocketStages', 0.8095238095238095), (u'diameter', 0.81), (u'MeanOfTransportation/diameter', 0.81), (u'num', 0.94085766583496544), (u'o/wgs84_pos#lat', 0.94467111690483785), (u'partialFailedLaunches', 0.9464285714285714), (u'Rocket/lowerEarthOrbitPayload', 0.9605263157894737), (u'Rocket/mass', 0.9955555555555555), (u'MeanOfTransportation/mass', 0.9955555555555555), (u'MeanOfTransportation/height', 0.9989571428571429), (u'lowerEarthOrbitPayload', 0.9999605263157895), (u'mass', 0.9999955555555555), (u'in', 0.99999694539928652), (u'o/wgs84_pos#long', 0.99999997818432962), (u'lbs', 0.99999998921019395)]
NOT correct mapping: populationDensity - utcOffset
/Users/emiliakacprzak/Code/papers/semantification/benchmark_labels_new/largeSample/large5/dbo_populationDensity-404-large-5var.csv
[(u'utcOffset', 0.0), (u'PopulatedPlace/populationDensity', 0.004482542567567529), (u'populationDensity', 0.004486486486486529), (u'populationTotal', 0.25225225225225223), (u'areaCode', 0.3480392156862745), (u'elevation', 0.5934065934065934), (u'PopulatedPlace/areaTotal', 0.7980033550226618), (u'meanAnomaly', 0.8300490181685185), (u'argPeri', 0.89877286651808752), (u'ascNode', 0.98662296727724264), (u'temperature', 0.98705267115855577), (u'areaTotal', 0.99308), (u'inclination', 0.99769938580904005), (u'postalCode', 0.997780044399112), (u'radius', 0.99843412424824995), (u'yearLeader', 0.9997796635966345), (u'areaLand', 0.999852), (u'tisserand', 0.99988496911572911), (u'areaWater', 0.9999227794968533), (u'absoluteMagnitude', 0.99995385170339524), (u'averageSpeed', 0.99997888848036842), (u'uncertainty', 0.99999426639703604), (u'mass', 0.99999968888141821), (u'rotationPeriod', 0.99999994730817621), (u'orbitalPeriod', 0.99999999478403956), (u'periapsis', 0.9999999950523546), (u'apoapsis', 0.9999999950523546), (u'eccentricity', 0.99999999994503519), (u'o/wgs84_pos#lat', 1.0)]
NOT correct mapping: deathYear - activeYearsStartYear
